NORAD_CAT_ID,OBJECT_NAME,OBJECT_TYPE,EPOCH,MEAN_MOTION,ECCENTRICITY,INCLINATION,RA_OF_ASC_NODE,ARG_OF_PERICENTER,MEAN_ANOMALY,BSTAR,MEAN_MOTION_DOT,MEAN_MOTION_DDOT,TLE_LINE0,TLE_LINE1,TLE_LINE2,SEMIMAJOR_AXIS,PERIOD,APOGEE,PERIGEE,DECAYED
53983.0,STARLINK-5103,PAYLOAD,2024-05-10 21:54:50,15.08855577,0.0001143,53.218,321.7212,100.4705,259.6416,0.00027755,4.134e-05,0.0,0 STARLINK-5103,1 53983U 22125V   24131.91307991  .00004134  00000-0  27755-3 0  9991,2 53983  53.2180 321.7212 0001143 100.4705 259.6416 15.08855577 88799,6917.833,95.437,540.488,538.907,0.0
53983.0,STARLINK-5103,PAYLOAD,2024-05-11 18:34:48,15.08851813,0.0001927,53.2175,317.8556,86.8455,273.2757,-0.00028993,-4.901e-05,0.0,0 STARLINK-5103,1 53983U 22125V   24132.77417663 -.00004901  00000-0 -28993-3 0  9993,2 53983  53.2175 317.8556 0001927  86.8455 273.2757 15.08851813 88990,6917.844,95.437,541.042,538.376,0.0
53983.0,STARLINK-5103,PAYLOAD,2024-05-11 21:45:36,15.08794903,0.0001825,53.217,317.2584,98.4251,261.6948,-0.0020623,-0.0003292,0.0,0 STARLINK-5103,1 53983U 22125V   24132.90667603 -.00032920  00000-0 -20623-2 0  9992,2 53983  53.2170 317.2584 0001825  98.4251 261.6948 15.08794903 88944,6918.018,95.44,541.146,538.621,0.0
53983.0,STARLINK-5103,PAYLOAD,2024-05-12 05:42:35,15.08733167,0.0002362,53.2176,315.7724,82.358,277.768,-0.0030437,-0.00048266,0.0,0 STARLINK-5103,1 53983U 22125V   24133.23790943 -.00048266  00000-0 -30437-2 0  9997,2 53983  53.2176 315.7724 0002362  82.3580 277.7680 15.08733167 89063,6918.207,95.444,541.706,538.438,0.0
53983.0,STARLINK-5103,PAYLOAD,2024-05-12 21:36:29,15.08806181,0.0001083,53.2163,312.801,109.0201,251.0909,0.00065414,0.00010128,0.0,0 STARLINK-5103,1 53983U 22125V   24133.90033983  .00010128  00000-0  65414-3 0  9993,2 53983  53.2163 312.8010 0001083 109.0201 251.0909 15.08806181 89090,6917.984,95.44,540.598,539.1,0.0
53983.0,STARLINK-5103,PAYLOAD,2024-05-13 11:55:00,15.08834202,9.03e-05,53.2171,310.1252,87.9183,272.1912,0.0031296,0.00049864,0.0,0 STARLINK-5103,1 53983U 22125V   24134.49652791  .00049864  00000-0  31296-2 0  9991,2 53983  53.2171 310.1252 0000903  87.9183 272.1912 15.08834202 89252,6917.898,95.438,540.388,539.138,0.0
53983.0,STARLINK-5103,PAYLOAD,2024-05-13 18:16:31,15.08862197,0.0001007,53.2168,308.9358,92.8462,267.2646,0.0020208,0.00032039,0.0,0 STARLINK-5103,1 53983U 22125V   24134.76147910  .00032039  00000-0  20208-2 0  9990,2 53983  53.2168 308.9358 0001007  92.8462 267.2646 15.08862197 89221,6917.813,95.436,540.374,538.981,0.0
53983.0,STARLINK-5103,PAYLOAD,2024-05-14 18:07:14,15.08919219,0.0001034,53.2181,304.4751,96.7905,263.3205,0.0009343,0.00014645,0.0,0 STARLINK-5103,1 53983U 22125V   24135.75503039  .00014645  00000-0  93430-3 0  9999,2 53983  53.2181 304.4751 0001034  96.7905 263.3205 15.08919219 89449,6917.638,95.433,540.219,538.788,0.0
53983.0,STARLINK-5103,PAYLOAD,2024-05-15 03:39:31,15.08930328,9.56e-05,53.2194,302.6867,306.3921,53.6982,0.00086269,0.00013502,0.0,0 STARLINK-5103,1 53983U 22125V   24136.15244736  .00013502  00000-0  86269-3 0  9993,2 53983  53.2194 302.6867 0000956 306.3921  53.6982 15.08930328 89504,6917.604,95.432,540.131,538.808,0.0
53983.0,STARLINK-5103,PAYLOAD,2024-05-15 11:36:27,15.08861554,0.000107,53.2168,301.2004,55.7247,304.3846,-0.0010119,-0.00016365,0.0,0 STARLINK-5103,1 53983U 22125V   24136.48365303 -.00016365  00000-0 -10119-2 0  9995,2 53983  53.2168 301.2004 0001070  55.7247 304.3846 15.08861554 89551,6917.815,95.436,540.42,538.939,0.0
53983.0,STARLINK-5103,PAYLOAD,2024-05-15 14:47:13,15.08876662,0.0001268,53.2171,300.6055,80.0712,280.0423,-0.00021122,-3.651e-05,0.0,0 STARLINK-5103,1 53983U 22125V   24136.61612947 -.00003651  00000-0 -21122-3 0  9990,2 53983  53.2171 300.6055 0001268  80.0712 280.0423 15.08876662 89503,6917.768,95.435,540.511,538.756,0.0
53983.0,STARLINK-5103,PAYLOAD,2024-05-15 17:57:59,15.08880667,9.92e-05,53.2169,300.0127,65.7336,294.376,0.00014625,2.043e-05,0.0,0 STARLINK-5103,1 53983U 22125V   24136.74860692  .00002043  00000-0  14625-3 0  9998,2 53983  53.2169 300.0127 0000992  65.7336 294.3760 15.08880667 89590,6917.756,95.435,540.307,538.935,0.0
53983.0,STARLINK-5103,PAYLOAD,2024-05-16 03:30:18,15.08860105,7.61e-05,53.2173,298.229,62.0747,298.0322,0.00018764,2.701e-05,0.0,0 STARLINK-5103,1 53983U 22125V   24137.14604440  .00002701  00000-0  18764-3 0  9999,2 53983  53.2173 298.2290 0000761  62.0747 298.0322 15.08860105 89651,6917.819,95.436,540.21,539.157,0.0
53983.0,STARLINK-5103,PAYLOAD,2024-05-16 11:27:14,15.08845557,0.0001029,53.2178,296.7424,76.8876,283.2231,0.00030213,4.525e-05,0.0,0 STARLINK-5103,1 53983U 22125V   24137.47724874  .00004525  00000-0  30213-3 0  9998,2 53983  53.2178 296.7424 0001029  76.8876 283.2231 15.08845557 89707,6917.863,95.437,540.44,539.017,0.0
53983.0,STARLINK-5103,PAYLOAD,2024-05-16 17:48:46,15.08867131,7.43e-05,53.2176,295.5517,34.3246,325.7794,0.001433,0.00022609,0.0,0 STARLINK-5103,1 53983U 22125V   24137.74220456  .00022609  00000-0  14330-2 0  9999,2 53983  53.2176 295.5517 0000743  34.3246 325.7794 15.08867131 89749,6917.797,95.436,540.176,539.148,0.0
53983.0,STARLINK-5103,PAYLOAD,2024-05-17 03:21:06,15.08829682,0.0002266,53.2173,293.7674,82.9913,277.1337,-0.0001463,-2.615e-05,0.0,0 STARLINK-5103,1 53983U 22125V   24138.13965328 -.00002615  00000-0 -14630-3 0  9998,2 53983  53.2173 293.7674 0002266  82.9913 277.1337 15.08829682 89801,6917.912,95.438,541.345,538.209,0.0
53983.0,STARLINK-5103,PAYLOAD,2024-05-17 19:14:58,15.08817429,0.0003173,53.2161,290.7913,79.8458,280.2892,0.00033302,5.012e-05,0.0,0 STARLINK-5103,1 53983U 22125V   24138.80206903  .00005012  00000-0  33302-3 0  9998,2 53983  53.2161 290.7913 0003173  79.8458 280.2892 15.08817429 89906,6917.949,95.439,542.009,537.619,0.0
53983.0,STARLINK-5103,PAYLOAD,2024-05-18 03:11:54,15.08837717,0.0001607,53.2171,289.3087,95.0482,265.0694,0.0011638,0.00018281,0.0,0 STARLINK-5103,1 53983U 22125V   24139.13326406  .00018281  00000-0  11638-2 0  9995,2 53983  53.2171 289.3087 0001607  95.0482 265.0694 15.08837717 89958,6917.887,95.438,540.864,538.641,0.0
53983.0,STARLINK-5103,PAYLOAD,2024-05-18 14:19:35,15.08873952,0.0001292,53.2156,287.2278,93.4622,266.6518,0.0017694,0.0002801,0.0,0 STARLINK-5103,1 53983U 22125V   24139.59693598  .00028010  00000-0  17694-2 0  9993,2 53983  53.2156 287.2278 0001292  93.4622 266.6518 15.08873952 89951,6917.777,95.435,540.535,538.748,0.0
53983.0,STARLINK-5103,PAYLOAD,2024-05-18 17:30:21,15.08895979,0.0001332,53.2151,286.6314,96.9687,263.1457,0.0027344,0.00043566,0.0,0 STARLINK-5103,1 53983U 22125V   24139.72941084  .00043566  00000-0  27344-2 0  9990,2 53983  53.2151 286.6314 0001332  96.9687 263.1457 15.08895979 90043,6917.709,95.434,540.496,538.653,0.0
53983.0,STARLINK-5103,PAYLOAD,2024-05-19 03:02:40,15.08860775,0.0002,53.2153,284.8451,76.235,283.8865,0.00074469,0.0001159,0.0,0 STARLINK-5103,1 53983U 22125V   24140.12685379  .00011590  00000-0  74469-3 0  9991,2 53983  53.2153 284.8451 0002000  76.2350 283.8865 15.08860775 90103,6917.817,95.436,541.065,538.298,0.0
53983.0,STARLINK-5103,PAYLOAD,2024-05-19 14:10:22,15.08812954,0.0001295,53.214,282.7668,59.1406,300.9714,0.00053488,8.229e-05,0.0,0 STARLINK-5103,1 53983U 22125V   24140.59054264  .00008229  00000-0  53488-3 0  9998,2 53983  53.2140 282.7668 0001295  59.1406 300.9714 15.08812954 90103,6917.963,95.439,540.724,538.932,0.0
53983.0,STARLINK-5103,PAYLOAD,2024-05-19 18:56:32,15.08822408,0.0001878,53.2141,281.8742,63.8612,296.2573,0.001907,0.00030178,0.0,0 STARLINK-5103,1 53983U 22125V   24140.78926833  .00030178  00000-0  19070-2 0  9995,2 53983  53.2141 281.8742 0001878  63.8612 296.2573 15.08822408 90201,6917.934,95.439,541.098,538.5,0.0
53983.0,STARLINK-5103,PAYLOAD,2024-05-20 12:25:47,15.08860167,0.0001852,53.2151,278.6017,65.6465,294.4721,0.0015516,0.00024506,0.0,0 STARLINK-5103,1 53983U 22125V   24141.51790599  .00024506  00000-0  15516-2 0  9994,2 53983  53.2151 278.6017 0001852  65.6465 294.4721 15.08860167 90242,6917.819,95.436,540.965,538.403,0.0
53983.0,STARLINK-5103,PAYLOAD,2024-05-21 12:16:33,15.08850614,0.0001418,53.2179,274.139,98.4743,261.641,0.0011333,0.000178,0.0,0 STARLINK-5103,1 53983U 22125V   24142.51150105  .00017800  00000-0  11333-2 0  9990,2 53983  53.2179 274.1390 0001418  98.4743 261.6410 15.08850614 90469,6917.848,95.437,540.694,538.732,0.0
53983.0,STARLINK-5103,PAYLOAD,2024-05-21 13:51:56,15.08850908,0.0001363,53.2179,273.8417,97.7402,262.3745,0.0012761,0.00020085,0.0,0 STARLINK-5103,1 53983U 22125V   24142.57774074  .00020085  00000-0  12761-2 0  9998,2 53983  53.2179 273.8417 0001363  97.7402 262.3745 15.08850908 90407,6917.847,95.437,540.655,538.769,0.0
53983.0,STARLINK-5103,PAYLOAD,2024-05-21 15:27:20,15.08847695,0.0001275,53.2179,273.5465,74.4914,285.6219,0.0012139,0.00019088,0.0,0 STARLINK-5103,1 53983U 22125V   24142.64398183  .00019088  00000-0  12139-2 0  9999,2 53983  53.2179 273.5465 0001275  74.4914 285.6219 15.08847695 90413,6917.857,95.437,540.604,538.84,0.0
53983.0,STARLINK-5103,PAYLOAD,2024-05-22 12:07:20,15.0884969,0.0001457,53.2182,269.6801,95.8366,264.2792,0.00056409,8.703e-05,0.0,0 STARLINK-5103,1 53983U 22125V   24143.50509960  .00008703  00000-0  56409-3 0  9993,2 53983  53.2182 269.6801 0001457  95.8366 264.2792 15.08849690 90615,6917.851,95.437,540.724,538.708,0.0
53983.0,STARLINK-5103,PAYLOAD,2024-05-23 11:58:07,15.08834814,0.0001437,53.2189,265.2258,88.0391,272.0766,-6.7277e-05,-1.358e-05,0.0,0 STARLINK-5103,1 53983U 22125V   24144.49870203 -.00001358  00000-0 -67277-4 0  9990,2 53983  53.2189 265.2258 0001437  88.0391 272.0766 15.08834814 90766,6917.896,95.438,540.755,538.767,0.0
53983.0,STARLINK-5103,PAYLOAD,2024-05-23 13:33:31,15.08835046,0.0001469,53.2191,264.9289,79.0613,281.0544,-2.3708e-05,-6.65e-06,0.0,0 STARLINK-5103,1 53983U 22125V   24144.56494266 -.00000665  00000-0 -23708-4 0  9990,2 53983  53.2191 264.9289 0001469  79.0613 281.0544 15.08835046 90707,6917.896,95.438,540.777,538.744,0.0
